{"type": "FeatureCollection", "features": [ {"type": "Feature", "properties": {"norad_id": 58662, "name": "TIANMU-1 21", "group": "weather", "lat": -48.63244679254572, "lon": -96.75759029990685, "alt_km": 477.2861965484244, "timestamp": "2025-12-04T09:47:37.166474+00:00", "meta": {"OBJECT_NAME": "TIANMU-1 21", "OBJECT_ID": "2023-208C", "EPOCH": "2025-12-03T23:23:07.882656", "MEAN_MOTION": 15.31256121, "ECCENTRICITY": 0.00059665, "INCLINATION": 97.438, "RA_OF_ASC_NODE": 91.3391, "ARG_OF_PERICENTER": 297.0599, "MEAN_ANOMALY": 63.0033, "EPHEMERIS_TYPE": 0, "CLASSIFICATION_TYPE": "U", "NORAD_CAT_ID": 58662, "ELEMENT_SET_NO": 999, "REV_AT_EPOCH": 10765, "BSTAR": 0.00066310728, "MEAN_MOTION_DOT": 0.00019981, "MEAN_MOTION_DDOT": 0}, "tle": {"line1": "1 58662U 23208C   25337.97439679  .00019981  00000+0  66311-3 0  9993", "line2": "2 58662  97.4380  91.3391 0005966 297.0599  63.0033 15.31256121107654"}}, "geometry": {"type": "Point", "coordinates": [-96.75759029990685, -48.63244679254572]}}, {"type": "Feature", "properties": {"norad_id": 58663, "name": "TIANMU-1 22", "group": "weather", "lat": -82.45446363657194, "lon": -171.00850194061485, "alt_km": 489.9206792735349, "timestamp": "2025-12-04T09:47:37.166485+00:00", "meta": {"OBJECT_NAME": "TIANMU-1 22", "OBJECT_ID": "2023-208D", "EPOCH": "2025-12-03T23:11:10.158720", "MEAN_MOTION": 15.27367861, "ECCENTRICITY": 0.00030293, "INCLINATION": 97.4388, "RA_OF_ASC_NODE": 89.0854, "ARG_OF_PERICENTER": 328.7171, "MEAN_ANOMALY": 31.3888, "EPHEMERIS_TYPE": 0, "CLASSIFICATION_TYPE": "U", "NORAD_CAT_ID": 58663, "ELEMENT_SET_NO": 999, "REV_AT_EPOCH": 10749, "BSTAR": 0.00059177511, "MEAN_MOTION_DOT": 0.00015803, "MEAN_MOTION_DDOT": 0}, "tle": {"line1": "1 58663U 23208D   25337.96608980  .00015803  00000+0  59178-3 0  9998", "line2": "2 58663  97.4388  89.0854 0003029 328.7171  31.3888 15.27367861107494"}}, "geometry": {"type": "Point", "coordinates": [-171.00850194061485, -82.45446363657194]}}, {"type": "Feature", "properties": {"norad_id": 58700, "name": "TIANMU-1 15", "group": "weather", "lat": 54.143413014764896, "lon": -9.643156688332844, "alt_km": 490.7292228995866, "timestamp": "2025-12-04T09:47:37.166495+00:00", "meta": {"OBJECT_NAME": "TIANMU-1 15", "OBJECT_ID": "2024-004A", "EPOCH": "2025-12-03T23:47:41.917632", "MEAN_MOTION": 15.2449429, "ECCENTRICITY": 0.00057626, "INCLINATION": 97.4624, "RA_OF_ASC_NODE": 159.4927, "ARG_OF_PERICENTER": 333.5742, "MEAN_ANOMALY": 26.5201, "EPHEMERIS_TYPE": 0, "CLASSIFICATION_TYPE": "U", "NORAD_CAT_ID": 58700, "ELEMENT_SET_NO": 999, "REV_AT_EPOCH": 10601, "BSTAR": 0.00054947802, "MEAN_MOTION_DOT": 0.00013452, "MEAN_MOTION_DDOT": 0}, "tle": {"line1": "1 58700U 24004A   25337.99145738  .00013452  00000+0  54948-3 0  9993", "line2": "2 58700  97.4624 159.4927 0005762 333.5742  26.5201 15.24494290106012"}}, "geometry": {"type": "Point", "coordinates": [-9.643156688332844, 54.143413014764896]}}, {"type": "Feature", "properties": {"norad_id": 58701, "name": "TIANMU-1 16", "group": "weather", "lat": -33.93991553076788, "lon": -25.751440096990553, "alt_km": 500.9882128671097, "timestamp": "2025-12-04T09:47:37.166505+00:00", "meta": {"OBJECT_NAME": "TIANMU-1 16", "OBJECT_ID": "2024-004B", "EPOCH": "2025-12-02T23:46:09.262272", "MEAN_MOTION": 15.24215807, "ECCENTRICITY": 0.00050547, "INCLINATION": 97.4572, "RA_OF_ASC_NODE": 157.8955, "ARG_OF_PERICENTER": 336.3217, "MEAN_ANOMALY": 23.7787, "EPHEMERIS_TYPE": 0, "CLASSIFICATION_TYPE": "U", "NORAD_CAT_ID": 58701, "ELEMENT_SET_NO": 999, "REV_AT_EPOCH": 10586, "BSTAR": 6.5908855e-05, "MEAN_MOTION_DOT": 1.535e-05, "MEAN_MOTION_DDOT": 0}, "tle": {"line1": "1 58701U 24004B   25336.99038498  .00001535  00000+0  65909-4 0  9996", "line2": "2 58701  97.4572 157.8955 0005054 336.3217  23.7787 15.24215807105865"}}, "geometry": {"type": "Point", "coordinates": [-25.751440096990553, -33.93991553076788]}}, {"type": "Feature", "properties": {"norad_id": 58702, "name": "TIANMU-1 17", "group": "weather", "lat": -61.69291205173161, "lon": 173.79154860214382, "alt_km": 497.7737033873127, "timestamp": "2025-12-04T09:47:37.166518+00:00", "meta": {"OBJECT_NAME": "TIANMU-1 17", "OBJECT_ID": "2024-004C", "EPOCH": "2025-12-03T23:02:21.145344", "MEAN_MOTION": 15.24291475, "ECCENTRICITY": 0.00042668, "INCLINATION": 97.4597, "RA_OF_ASC_NODE": 159.2657, "ARG_OF_PERICENTER": 337.0975, "MEAN_ANOMALY": 23.0072, "EPHEMERIS_TYPE": 0, "CLASSIFICATION_TYPE": "U", "NORAD_CAT_ID": 58702, "ELEMENT_SET_NO": 999, "REV_AT_EPOCH": 10600, "BSTAR": 0.00051441386, "MEAN_MOTION_DOT": 0.00012509, "MEAN_MOTION_DDOT": 0}, "tle": {"line1": "1 58702U 24004C   25337.95996696  .00012509  00000+0  51441-3 0  9995", "line2": "2 58702  97.4597 159.2657 0004266 337.0975  23.0072 15.24291475106003"}}, "geometry": {"type": "Point", "coordinates": [173.79154860214382, -61.69291205173161]}}, {"type": "Feature", "properties": {"norad_id": 58703, "name": "TIANMU-1 18", "group": "weather", "lat": 28.96708947325744, "lon": 155.74478728331943, "alt_km": 490.122028593878, "timestamp": "2025-12-04T09:47:37.166528+00:00", "meta": {"OBJECT_NAME": "TIANMU-1 18", "OBJECT_ID": "2024-004D", "EPOCH": "2025-12-04T00:12:46.025856", "MEAN_MOTION": 15.24284021, "ECCENTRICITY": 0.00036352, "INCLINATION": 97.4614, "RA_OF_ASC_NODE": 159.5078, "ARG_OF_PERICENTER": 337.7902, "MEAN_ANOMALY": 22.3177, "EPHEMERIS_TYPE": 0, "CLASSIFICATION_TYPE": "U", "NORAD_CAT_ID": 58703, "ELEMENT_SET_NO": 999, "REV_AT_EPOCH": 10601, "BSTAR": 0.00051361528, "MEAN_MOTION_DOT": 0.00012486, "MEAN_MOTION_DDOT": 0}, "tle": {"line1": "1 58703U 24004D   25338.00886604  .00012486  00000+0  51362-3 0  9996", "line2": "2 58703  97.4614 159.5078 0003635 337.7902  22.3177 15.24284021106018"}}, "geometry": {"type": "Point", "coordinates": [155.74478728331943, 28.96708947325744]}}, {"type": "Feature", "properties": {"norad_id": 58990, "name": "INSAT-3DS", "group": "weather", "lat": -0.014428897996987393, "lon": -57.54365996736733, "alt_km": 35781.40894985663, "timestamp": "2025-12-04T09:47:37.166540+00:00", "meta": {"OBJECT_NAME": "INSAT-3DS", "OBJECT_ID": "2024-033A", "EPOCH": "2025-12-03T20:14:15.823680", "MEAN_MOTION": 1.00268816, "ECCENTRICITY": 0.00017747, "INCLINATION": 0.013, "RA_OF_ASC_NODE": 325.7109, "ARG_OF_PERICENTER": 294.1974, "MEAN_ANOMALY": 198.6664, "EPHEMERIS_TYPE": 0, "CLASSIFICATION_TYPE": "U", "NORAD_CAT_ID": 58990, "ELEMENT_SET_NO": 999, "REV_AT_EPOCH": 4511, "BSTAR": 0, "MEAN_MOTION_DOT": 0, "MEAN_MOTION_DDOT": 0}, "tle": {"line1": "1 58990U 24033A   25337.84323870  .00000000  00000+0  00000+0 0  9996", "line2": "2 58990   0.0130 325.7109 0001774 294.1974 198.6664  1.00268816 45112"}}, "geometry": {"type": "Point", "coordinates": [-57.54365996736733, -0.014428897996987393]}}, {"type": "Feature", "properties": {"norad_id": 59051, "name": "METEOR-M2 4", "group": "weather", "lat": 17.380788667071673, "lon": -67.29121292363996, "alt_km": 812.2722953315042, "timestamp": "2025-12-04T09:47:37.166551+00:00", "meta": {"OBJECT_NAME": "METEOR-M2 4", "OBJECT_ID": "2024-039A", "EPOCH": "2025-12-03T23:34:54.758208", "MEAN_MOTION": 14.22399136, "ECCENTRICITY": 0.00075064, "INCLINATION": 98.6753, "RA_OF_ASC_NODE": 295.0293, "ARG_OF_PERICENTER": 22.846, "MEAN_ANOMALY": 337.305, "EPHEMERIS_TYPE": 0, "CLASSIFICATION_TYPE": "U", "NORAD_CAT_ID": 59051, "ELEMENT_SET_NO": 999, "REV_AT_EPOCH": 9151, "BSTAR": 5.7122378e-05, "MEAN_MOTION_DOT": 8.4e-07, "MEAN_MOTION_DDOT": 0}, "tle": {"line1": "1 59051U 24039A   25337.98257822  .00000084  00000+0  57122-4 0  9993", "line2": "2 59051  98.6753 295.0293 0007506  22.8460 337.3050 14.22399136 91517"}}, "geometry": {"type": "Point", "coordinates": [-67.29121292363996, 17.380788667071673]}}, {"type": "Feature", "properties": {"norad_id": 60133, "name": "GOES 19", "group": "weather", "lat": 0.004922306799699344, "lon": 145.177653972237, "alt_km": 35791.42401175259, "timestamp": "2025-12-04T09:47:37.166563+00:00", "meta": {"OBJECT_NAME": "GOES 19", "OBJECT_ID": "2024-119A", "EPOCH": "2025-12-03T13:23:52.774944", "MEAN_MOTION": 1.00270855, "ECCENTRICITY": 0.00013381, "INCLINATION": 0.0059, "RA_OF_ASC_NODE": 37.8356, "ARG_OF_PERICENTER": 260.173, "MEAN_ANOMALY": 260.4283, "EPHEMERIS_TYPE": 0, "CLASSIFICATION_TYPE": "U", "NORAD_CAT_ID": 60133, "ELEMENT_SET_NO": 999, "REV_AT_EPOCH": 500, "BSTAR": 0, "MEAN_MOTION_DOT": -2.3e-06, "MEAN_MOTION_DDOT": 0}, "tle": {"line1": "1 60133U 24119A   25337.55824971 -.00000230  00000+0  00000+0 0  9995", "line2": "2 60133   0.0059  37.8356 0001338 260.1730 260.4283  1.00270855  5003"}}, "geometry": {"type": "Point", "coordinates": [145.177653972237, 0.004922306799699344]}}, {"type": "Feature", "properties": {"norad_id": 65815, "name": "FENGYUN 3H", "group": "weather", "lat": -28.331630872632477, "lon": -77.10863416867387, "alt_km": 831.535879037312, "timestamp": "2025-12-04T09:47:37.166574+00:00", "meta": {"OBJECT_NAME": "FENGYUN 3H", "OBJECT_ID": "2025-219A", "EPOCH": "2025-12-03T18:42:27.189504", "MEAN_MOTION": 14.19900487, "ECCENTRICITY": 6.277e-05, "INCLINATION": 98.657, "RA_OF_ASC_NODE": 277.565, "ARG_OF_PERICENTER": 71.8149, "MEAN_ANOMALY": 288.3095, "EPHEMERIS_TYPE": 0, "CLASSIFICATION_TYPE": "U", "NORAD_CAT_ID": 65815, "ELEMENT_SET_NO": 999, "REV_AT_EPOCH": 965, "BSTAR": 9.1708595e-05, "MEAN_MOTION_DOT": 1.51e-06, "MEAN_MOTION_DDOT": 0}, "tle": {"line1": "1 65815U 25219A   25337.77948136  .00000151  00000+0  91709-4 0  9995", "line2": "2 65815  98.6570 277.5650 0000627  71.8149 288.3095 14.19900487  9657"}}, "geometry": {"type": "Point", "coordinates": [-77.10863416867387, -28.331630872632477]}}]}